{"type":"FeatureCollection","features":[{"type":"Feature","properties":{"name":"Italia"},"geometry":{"type":"MultiPolygon","coordinates":[[[[8.309103469078641,39.18792251582646],[8.31010024718476,39.11255886328662],[8.290171554309461,39.0955087148802],[8.247908595801583,39.108476344918024],[8.250320489532701,39.133402613870764],[8.219604980973271,39.14758013975599],[8.309103469078641,39.18792251582646]]],[[[8.40152650321884,40.409095726925685],[8.29504269845517,40.59297859190422],[8.198149257364026,40.57119417884379],[8.219509245839474,40.60101058602145],[8.19475784505193,40.61841991353468],[8.164400839544655,40.56032021358467],[8.1508826577449,40.57943154264376],[8.144863761928379,40.62375130480578],[8.186731290417406,40.63919270348505],[8.205029565763622,40.68272453161768],[8.133825271143182,40.731401902738995],[8.223798166528871,40.886382050937215],[8.175811061443063,40.934954485777766],[8.201404397453368,40.970842773194704],[8.238382538231976,40.95290561570966],[8.232702835793754,40.91083587650448],[8.302112910190246,40.850705295777495],[8.343340548798587,40.84072290919404],[8.350147022421647,40.85035194349635],[8.362513773709331,40.852915130773304],[8.384724224907337,40.851171013483516],[8.347912040366316,40.839784949658736],[8.495961883149336,40.82058564122483],[8.590881233206293,40.84264111996801],[8.6989188287291,40.91454720940648],[8.789901408657373,40.922169439093096],[8.873002218222723,40.995464766425314],[8.879882421892363,41.0286615387968],[8.929013859305606,41.04365798840035],[9.01325284665078,41.12542140249105],[9.086219807336834,41.12799320611128],[9.152488916787396,41.15542129723598],[9.171105887435933,41.17395594056359],[9.154112382116061,41.19721124242358],[9.167263683454516,41.22940940128467],[9.141308031171809,41.232366085083726],[9.144239634414388,41.246947189734875],[9.162740505434972,41.23560536809239],[9.235071019852704,41.25914609512382],[9.237012702021953,41.246048201933014],[9.280526624336662,41.22784250813512],[9.2767175375372,41.193171592523754],[9.286669445195821,41.21921591739441],[9.300906763548141,41.202073736845584],[9.289457432684223,41.19336209533355],[9.32034032184722,41.203066228470476],[9.33186755708985,41.185324162524296],[9.341298818410497,41.19213356185918],[9.338203335632372,41.2046906112659],[9.36331423180657,41.20757770295375],[9.37023832683401,41.183243492521534],[9.423279629419765,41.17680931759973],[9.405125082452843,41.15793103945747],[9.432160919956063,41.15152500011784],[9.44248262090108,41.10180930185948],[9.471710632270643,41.125708540505684],[9.466928664314,41.14350064568075],[9.510156774876375,41.14073204311697],[9.519489156692927,41.15689552392469],[9.526624787236777,41.13373536054737],[9.545791585774147,41.13368668059782],[9.540415215114285,41.11444408434637],[9.566893358002591,41.11586620131593],[9.50591990645637,41.0094264151569],[9.56121513998299,41.037713654899065],[9.555479571755917,41.0037719784411],[9.595080386607457,41.02273452549257],[9.66487821809543,40.99544590858714],[9.651436025650554,40.98414542404504],[9.610969270604132,41.0032209702418],[9.582540243088024,40.98300305560183],[9.593879562598127,40.968475871835786],[9.568152001911184,40.942435653211206],[9.574833906909742,40.92798602560131],[9.523857204169172,40.93352346726173],[9.50236952257124,40.92746984423462],[9.503811748819379,40.91269453434035],[9.56336482363764,40.91906255321804],[9.575944518920078,40.90405235611738],[9.588661233094234,40.89961463738889],[9.644287579886342,40.920013690473624],[9.615952950632769,40.8895866616909],[9.650738665233845,40.87938632225695],[9.665176666091119,40.85328576023964],[9.67773842497466,40.861662424935254],[9.693524558667407,40.846371583141405],[9.727911524352878,40.84448079501187],[9.686302501813199,40.8352399503689],[9.691920260547034,40.81130217229504],[9.671389944023698,40.78466628554776],[9.714960097475432,40.753130104094566],[9.71154030143625,40.74028265041939],[9.715349923397019,40.70907619562584],[9.749685554608822,40.679931914650155],[9.751756272777095,40.60086786553344],[9.796175636075574,40.544319863929076],[9.828420166045603,40.528378286567175],[9.76386977028879,40.39072495678148],[9.683971639854676,40.33865281525235],[9.623921974335298,40.25278346018867],[9.634117660583549,40.17978873520697],[9.73568355700086,40.07748970996434],[9.686638269734642,39.984172365612366],[9.686848416966612,39.94842075261572],[9.715830098911752,39.92837677511759],[9.681986684422073,39.900283411496325],[9.696731380301872,39.8534348801757],[9.668434889914904,39.77674688235297],[9.675953198801382,39.710885182156645],[9.647192466538275,39.65169940800737],[9.655511816380637,39.57048414622955],[9.631451553874486,39.502735676475204],[9.645950777207764,39.46139052613688],[9.5981120666611,39.35264908859442],[9.604892959986067,39.31798493240097],[9.633241172766425,39.295778236153176],[9.606858065416665,39.2941830557946],[9.58154518110282,39.26410931119048],[9.56273950872513,39.19647737031838],[9.578899261870296,39.175586392472454],[9.560385920601327,39.13723392095858],[9.520949181967124,39.117644451425996],[9.523785211061131,39.094671609822235],[9.502898868366994,39.13116027432956],[9.437654461546709,39.12201486474588],[9.29748500873143,39.21325167138345],[9.209845088476525,39.226818106050374],[9.164831105949414,39.20440093836547],[9.158672983960047,39.18131600464434],[9.095924251467295,39.21411497281154],[9.03020575171883,39.163539569383886],[9.008920210274905,39.12127830436366],[9.04579050549662,39.05613822070528],[9.024186150438258,39.003757878939794],[8.854598796065899,38.87855144526],[8.722157776114173,38.937699961983355],[8.66411684046184,38.91250704499596],[8.670257663812876,38.89716124455881],[8.649668990313865,38.89489348890145],[8.656623756162723,38.87064637048899],[8.639932103346077,38.864945919691564],[8.646387342888824,38.894223511107086],[8.606658664128267,38.892835967411216],[8.623590569093203,38.93756227648566],[8.607298510797811,38.961645412446835],[8.585395978419234,38.958184789351236],[8.56500895524041,38.999764012014495],[8.571414187236476,39.037983943463246],[8.511635766414237,39.06231783812936],[8.466110513299697,39.05700779804826],[8.444755230110157,38.969921051161876],[8.403208224256776,38.9623121192136],[8.360421563155496,39.037684642805694],[8.35074577446941,39.09750966619001],[8.371262729670491,39.11352767238908],[8.3803687681618,39.09964203050487],[8.425741780700891,39.10892367428716],[8.464582369894188,39.0579977288143],[8.488458248635862,39.08473832689829],[8.46683214197611,39.11861195723417],[8.437371729169957,39.12015179106629],[8.437124246531862,39.155962482607976],[8.412908436457547,39.17398201005473],[8.41259291996916,39.15119965117356],[8.401447897480283,39.19373866956947],[8.36826030745376,39.21552289740048],[8.436990414785159,39.29199861246975],[8.373143082372312,39.37380453178874],[8.412716089589598,39.426903033410724],[8.385622287958407,39.47117802756899],[8.451117346122823,39.54564669475454],[8.470572675821181,39.59893726853951],[8.449561440308324,39.63422287616973],[8.444058297845013,39.75815796573301],[8.459854405353214,39.76844091165248],[8.502218257099496,39.71303481803631],[8.545365739603945,39.7951887105647],[8.553905115005561,39.857565087720985],[8.57045798588188,39.8638500289524],[8.491855393152695,39.90962217485882],[8.466458378827992,39.90362019143399],[8.435571000519031,39.858024964510776],[8.434714016492292,39.88409868443566],[8.398807802856677,39.90374081780203],[8.391404415105017,39.975544699736375],[8.414083821589301,40.0169989798902],[8.376264958455462,40.035770172554216],[8.453700210526993,40.05080623048551],[8.492925593955524,40.08664890070534],[8.45576200212228,40.17667843060121],[8.483837532655192,40.27366619650543],[8.459066976207517,40.31936484607023],[8.384295734371007,40.34361299046673],[8.40152650321884,40.409095726925685]]],[[[8.350254920313343,41.087837427827026],[8.332350519827934,41.049964620543875],[8.283372596285174,41.06444242048296],[8.257323635679663,41.05125870230758],[8.234581278472156,41.02414444649975],[8.263585801880284,41.002671325597575],[8.255830000470961,40.98497469923541],[8.20916056717305,40.98914548702183],[8.229284328519572,41.023203840763415],[8.220321370803479,41.04089832880332],[8.285290993053763,41.0767400704644],[8.276168612878875,41.105031077336655],[8.31860239547655,41.12070914576515],[8.350254920313343,41.087837427827026]]],[[[7.566318476435475,43.94317871079515],[7.652096049942485,43.97352003707912],[7.670344906809395,43.998227560720196],[7.663025154676932,44.02876695453018],[7.714329727043176,44.061558889222994],[7.716977656531549,44.08331524592147],[7.666430626878929,44.13066032771965],[7.684645253449837,44.1739154534361],[7.636032835254207,44.17708157726471],[7.617380267275576,44.14983900718667],[7.42817059965342,44.13041201172728],[7.42335030821367,44.11332065828921],[7.356959282960097,44.11639129883107],[7.341907690888948,44.14605510153354],[7.278804856555744,44.141277236321216],[7.163572576497834,44.207851439334384],[7.007279320639912,44.235985082666396],[6.995754189382295,44.28014268137202],[6.958344824470428,44.29548482612607],[6.922010698397108,44.35172693657096],[6.886798461106823,44.36297323163656],[6.892794337492868,44.42023309270999],[6.948395121477372,44.42983427903424],[6.876169377317919,44.48149380667601],[6.855054526685088,44.53220636576422],[6.93258953062739,44.57288755650257],[6.937705544460783,44.603115694449095],[6.967336125731256,44.61928425552074],[6.947519868170628,44.65358426371074],[6.962680538182288,44.67773896331338],[7.029219938940313,44.69160927227377],[7.071117651991169,44.679865692914596],[7.073259434045949,44.69594393469667],[7.032445894310069,44.72788098524082],[7.000079320674003,44.789046566638845],[7.023850184782193,44.823331006587054],[7.006086480747337,44.839968561122745],[6.931505434975124,44.86343821067814],[6.911291720707427,44.844565894933844],[6.862942563783795,44.85071959237986],[6.750836327468798,44.906169609294885],[6.759988341955371,44.93378774221879],[6.746224558805594,44.93858470683094],[6.765546143524104,44.96161338377262],[6.737557667028317,44.99075927769672],[6.745950112759414,45.01386202705073],[6.673602949380075,45.02004396679611],[6.662259031616324,45.07138346139629],[6.626621368537682,45.104296480264324],[6.680208224149355,45.14041469838432],[6.740199547823685,45.136973271724315],[6.769156841737924,45.15983994129421],[6.848324290453199,45.12730636783051],[6.893925644608896,45.13727547972472],[6.893519542896277,45.16900778032873],[6.947471918711314,45.17047215752931],[6.9657563938488,45.20771946531511],[7.042103195424183,45.22569819056672],[7.083089823790441,45.21634800282444],[7.137090877824378,45.256074454697846],[7.109400589924701,45.32770282033589],[7.134535792696121,45.33169881262386],[7.185854265096371,45.403231191684725],[7.113513368885082,45.43405838054705],[7.102129964487627,45.46867745350748],[7.047889034741582,45.47247963713655],[7.053190405575448,45.49499208469213],[6.999687712960814,45.50457168212559],[6.995032157698917,45.57614780034356],[6.977857290746679,45.588941463605764],[7.000802225235136,45.640255130803624],[6.915208801142716,45.652523034195355],[6.902801410039515,45.68026175983975],[6.854058095443441,45.68696195816423],[6.809186914888368,45.72475975102477],[6.801326682921888,45.78125995543639],[6.819108183407471,45.83655053097935],[6.940650336725501,45.84706934158021],[6.997676908844257,45.87261007812287],[7.004278906742845,45.899817496100034],[7.041718754443322,45.922813919099525],[7.108231199948465,45.85817639779944],[7.154124355202159,45.87932265742561],[7.196737645197107,45.86068797506083],[7.216412732881813,45.88875473051925],[7.259707342625868,45.8903675644878],[7.294204981184128,45.92172377746251],[7.38373238545793,45.89683388903705],[7.474167887122021,45.93559164191498],[7.478126222470629,45.95262832341453],[7.542321363007909,45.95705654102487],[7.550348973662796,45.98620302892165],[7.663708536922281,45.97555146418232],[7.720139895408561,45.923688969927845],[7.753688869228895,45.939612626704225],[7.80008678121237,45.91712214173339],[7.864048284549529,45.91643936466997],[7.878064236445252,45.97340200768735],[7.908819617839215,45.99731676798299],[7.988170474322125,45.996296348167725],[8.012179386955598,46.01191494182088],[8.03458752525743,46.04334192679325],[8.022374054683404,46.06969877921863],[8.034203752600696,46.100193006963394],[8.108052276867832,46.11159336903578],[8.153462984863388,46.14594113703789],[8.165644298148115,46.18128393615139],[8.1390027411671,46.226077367993554],[8.080427855582357,46.26076596678116],[8.137708932817826,46.301612827385554],[8.203162576115096,46.30426570127208],[8.26339764334027,46.36366321267089],[8.312347502442547,46.37683768394874],[8.316902520281255,46.397240287569105],[8.289692447824232,46.40858509935407],[8.300311653964766,46.41935115065182],[8.438342329353615,46.464102424246335],[8.465423617816844,46.44476612389258],[8.468529063232715,46.41162599394644],[8.464441486676579,46.33298546355103],[8.427662002847084,46.29840102896584],[8.456246349576585,46.263513127104986],[8.44307670984231,46.25021988241489],[8.532580816421559,46.21805914365368],[8.573707547181286,46.164381966785264],[8.60270991559612,46.15525241644879],[8.611712590471027,46.121821092450816],[8.714815174881677,46.098042790817374],[8.742687498164715,46.12214597122103],[8.852050539206353,46.07552119567709],[8.785902262352213,45.98901770545032],[8.89427462816789,45.95846575135517],[8.893060909818573,45.93133753011847],[8.945600191889259,45.867196985575056],[8.912448587664402,45.83027876896088],[8.949537469933588,45.843477958942],[9.030634394731113,45.82078562824171],[9.088757575437448,45.900715683887405],[9.019395194076886,45.92857779530241],[9.014063885666989,45.9601563673976],[8.988770886480568,45.970583550980784],[9.028287088654542,45.99366190416016],[9.008971491909316,46.03698326563523],[9.077872439155035,46.065316730282284],[9.089842456701003,46.08848784608527],[9.071634933247358,46.119515099576944],[9.18262729156213,46.170520955154196],[9.221300739791339,46.22987040472754],[9.247615390950978,46.2336272471772],[9.251640605921535,46.26548772113578],[9.300050105433165,46.32658767870846],[9.276678018273081,46.36941784434932],[9.280637478609265,46.41235911903881],[9.247466783848749,46.43623517065118],[9.277816924592418,46.46159827540464],[9.282373224010545,46.49666277373475],[9.364683797619369,46.50772883793491],[9.410281964216107,46.46654553464598],[9.459859689603475,46.506620831031704],[9.461597073165176,46.376250183962284],[9.496042381822415,46.364037325444386],[9.549377306098805,46.302343091418706],[9.703056974430869,46.29071058212454],[9.737279078735096,46.35065871928857],[9.777477412757243,46.33496234572065],[9.906360621196157,46.38088411700089],[9.92536093200413,46.36600833455822],[9.952661972726515,46.379468256436574],[9.996352302176097,46.35093563887232],[9.980849437201808,46.323597783843724],[9.995486474364874,46.285455875668056],[10.055456296912096,46.26292216169582],[10.047448026923567,46.22874200097082],[10.132646995163052,46.22553557106488],[10.176125624960743,46.25888240651795],[10.104987378375679,46.3377696250618],[10.166679402300195,46.407778002737466],[10.130673266121049,46.431867405338],[10.079592783519216,46.42110696936736],[10.040523256900798,46.44413031100094],[10.053361331079863,46.4631460069328],[10.044108594545367,46.53937165837296],[10.101094870693585,46.58277722090249],[10.102154325004424,46.61077324847813],[10.213537226637321,46.61758334447364],[10.239062677816216,46.63518701514531],[10.258217479224394,46.6098560687189],[10.244002741757669,46.578400947821855],[10.283535246529631,46.57122355581441],[10.295748754446251,46.55040044846481],[10.419340040355502,46.55105287825489],[10.45313748628042,46.5305510063765],[10.47170423039293,46.542639573171925],[10.492294059113243,46.61511639248696],[10.445953812902335,46.64110366641241],[10.401607715014299,46.63704789441145],[10.386105190810296,46.68018212682632],[10.417540585434509,46.71429609808671],[10.401067909077714,46.73407708927022],[10.442105023595486,46.75285726859737],[10.42467327116607,46.788789302240765],[10.47808738750855,46.85860718989418],[10.550718005046088,46.83917073191633],[10.667933552062147,46.87588599191404],[10.76336248174783,46.82327206600658],[10.730494129755014,46.78790709660774],[10.78878439384028,46.79470057937926],[10.883195554351142,46.76310958485589],[11.02213537031252,46.765174811248244],[11.039798522774964,46.805084235259294],[11.08345273060579,46.82221992558068],[11.071423958622391,46.85286074742258],[11.101546106138908,46.88985971016322],[11.09590135481178,46.91223353035344],[11.165194829815764,46.940713074558964],[11.16452521123373,46.96556819512707],[11.31930589376345,46.99242719683525],[11.400908519190617,46.96524476417305],[11.47931586991069,47.01090940916409],[11.538076938508825,46.98410808654417],[11.627210453739467,47.01257735093896],[11.747168164872113,46.96890272279262],[11.978281084476984,47.049754208787604],[12.185761111327636,47.09166536212827],[12.225591385120214,47.08270624241812],[12.24019264358791,47.06793919658145],[12.204790459886226,47.0278888156892],[12.120988263371181,47.00665357758659],[12.131508216695197,46.9629470382391],[12.16820533358177,46.93788913589081],[12.144133320862394,46.91401100663754],[12.190163939062987,46.906233948867225],[12.21623032279695,46.873869377856614],[12.24218651008429,46.89108216378589],[12.274019671848928,46.884397282133186],[12.306921255409975,46.84094383968969],[12.282430622956197,46.81499165133236],[12.283685939985174,46.78306413614175],[12.357406561812843,46.774663348531185],[12.379037678258072,46.720628422001596],[12.44290355407753,46.68812639131431],[12.56457511492772,46.65110572912551],[12.689397519125972,46.656098876996865],[12.731981346929519,46.63381291702098],[12.782765934420206,46.64542760927451],[12.851989495938817,46.60507873251492],[13.168416161239229,46.58883326589754],[13.232525213310794,46.55359101052712],[13.320184835235946,46.55288665418002],[13.372750478531838,46.57935960668322],[13.425433355584092,46.557910417995416],[13.504100254887014,46.56607596194816],[13.518169178201887,46.54729764783543],[13.713851964174525,46.52308314310294],[13.688771639603775,46.439866116533025],[13.59754333234977,46.43925297099875],[13.565438475619379,46.39820993720726],[13.438988464540584,46.3602097632569],[13.439015322785789,46.322278461770395],[13.375547466288204,46.29821770928276],[13.422483037705986,46.2343906891783],[13.40905248330325,46.214910097035066],[13.423452394794003,46.20633666762072],[13.484385703089846,46.224552369036054],[13.553270575107105,46.208632763334734],[13.5669475459051,46.18566865961793],[13.663203312362567,46.18011808247038],[13.6438945398647,46.13707884971213],[13.4964954331674,46.0586164061054],[13.507554618995892,46.03348054734259],[13.47619027092416,46.00625385969477],[13.540980050548974,45.964866322776615],[13.58991130329294,45.98966828767678],[13.642660596364003,45.983194338328964],[13.637545531807968,45.93538935142802],[13.572733351932978,45.847552275975644],[13.596289003274162,45.80793968781565],[13.669400445009789,45.799639951187054],[13.79629643605946,45.74270302859445],[13.858129378922296,45.66566852573745],[13.918853096650253,45.63357078334665],[13.851118286816632,45.584854586337684],[13.722935892957482,45.59470787458359],[13.731744550640876,45.608871039592714],[13.808906291948311,45.60673877377555],[13.804005226291602,45.61128185325706],[13.782195466526199,45.61179325863585],[13.780933675860142,45.612271188646936],[13.780444275993942,45.61214651670894],[13.779659974804046,45.611900376508366],[13.780815218634737,45.61231688634914],[13.78026271355213,45.61251067933776],[13.77678020485459,45.613507700839484],[13.774047685405622,45.612773917625354],[13.776741026501224,45.613563202287935],[13.77722487561153,45.61374273665358],[13.782222827231818,45.611858876635104],[13.784245050627389,45.61378122710211],[13.775706131843837,45.63556231037306],[13.744239178552906,45.63912960456302],[13.755047825059949,45.64935020272054],[13.759023737746977,45.645699994671816],[13.769104473509246,45.65299229630608],[13.753336827602226,45.68044346421896],[13.733352012356203,45.69624428171469],[13.721688115047153,45.70093931476474],[13.712025941849028,45.70231742575376],[13.71221645479294,45.710163369956994],[13.711776636448338,45.71051463870223],[13.696336073321763,45.72088499161564],[13.676994380319574,45.73695508188215],[13.63201014045495,45.76821528523295],[13.561908807254229,45.778422705626305],[13.541761397823274,45.800385276394394],[13.533451527270508,45.804726091001235],[13.548147757788652,45.790242678550726],[13.530034178480575,45.788110859860524],[13.53816192574022,45.78195189433345],[13.54709668367152,45.78578135229621],[13.51643822901185,45.744265370902575],[13.552838733224577,45.72412009297022],[13.461080214321468,45.711209092463385],[13.424270306689507,45.677236481850365],[13.343768155923007,45.68035720480761],[13.245795537611958,45.71950291416009],[13.185788887928553,45.711154248492534],[13.148820893111706,45.69883744776159],[13.097679747015327,45.635938226136155],[12.908362881062873,45.614435618106995],[12.730589971168301,45.529404993207486],[12.376412686912056,45.412912493903846],[12.33068073002093,45.353546431967665],[12.342757872012477,45.33377250002419],[12.31899535352042,45.320230395905334],[12.295898558485666,45.244463373020686],[12.314270552270512,45.23375026755489],[12.299455366336353,45.22162024002653],[12.306253259096083,45.19438479494685],[12.334687779053034,45.16377968540891],[12.337233926183178,45.08952210129201],[12.444145243464881,45.01320917312659],[12.554085675648931,44.96540979327324],[12.509134299220879,44.92643963586995],[12.46500779012569,44.84373283740663],[12.42903962249727,44.8309296768942],[12.392945289000313,44.78731385520744],[12.375195292629545,44.783516889625446],[12.32869688797677,44.78710103023572],[12.31544324805443,44.79141408812632],[12.387654435163867,44.789725421161684],[12.308601320945785,44.84230958679916],[12.257775451104001,44.815190566137616],[12.286070548915475,44.8172163212396],[12.248307327934032,44.762765017864375],[12.240243685105163,44.69100450920169],[12.281782336336892,44.59372877080458],[12.28897515612511,44.46432694313792],[12.392335235727002,44.213069437333765],[12.689833776875531,43.98621864103153],[12.907332215722677,43.92300245120612],[13.286192321456703,43.67917744499327],[13.454020549446545,43.61051526114321],[13.503926857046476,43.61513918650794],[13.506873365422798,43.630500693286315],[13.575872578914092,43.56881341212314],[13.62554434319278,43.55033312273111],[13.624016153110844,43.50084211216189],[13.842252342211397,43.10255418723951],[13.944906410254289,42.80223713235844],[14.062011046569035,42.61857091495941],[14.20599610091334,42.4785371938214],[14.409916365403959,42.358090012693395],[14.509599970525699,42.25154977620835],[14.711700348707542,42.17770224705795],[14.718083215557826,42.10634459099151],[14.739437746761453,42.087572703981586],[14.878540534954602,42.02779111508225],[14.993590838894635,42.00478668821768],[15.080106719658119,41.94217260831397],[15.164083802157775,41.92272904003118],[15.419247658772543,41.900887644738525],[15.62304804245312,41.927434398078496],[15.77720055305536,41.91858250101869],[16.012148696915492,41.950441827831845],[16.06105900880039,41.94908491995437],[16.15300479910168,41.908682871226745],[16.17646187056276,41.88482373428974],[16.176685121700956,41.85511456799233],[16.1997397960535,41.826153655184356],[16.18678950949465,41.772339765046375],[15.90060448246744,41.61341138628153],[15.902123471665456,41.538456980873036],[15.956748401251804,41.46182227824149],[16.58220219660038,41.20816021028016],[16.85434752405822,41.12876177163212],[16.86822054178435,41.14315297301374],[16.87905208987702,41.12259721300556],[17.057066683828243,41.07703847760338],[17.27911813813089,40.97165104552985],[17.350114793232898,40.90573761931727],[17.478478468272137,40.82958068905009],[17.70722815166842,40.7581917698936],[17.838543811022156,40.69127040416015],[17.93562722710977,40.68617336990601],[17.95298967323823,40.66412761455343],[17.983992481708764,40.663655487680224],[17.927202079043308,40.64003535284191],[17.998613846560193,40.649032569992094],[18.045144259653945,40.59727928239028],[18.037437682822254,40.563972073127815],[18.08078120683935,40.52542953191939],[18.234250785631843,40.448440103066126],[18.422830971555882,40.29417924276675],[18.520381599098922,40.10708237287413],[18.483086329089407,40.07717900839926],[18.475211557149947,40.04425953500971],[18.416671259452613,39.994091871814284],[18.390217530732723,39.90735613185479],[18.39081200458083,39.81759929678054],[18.34616915396499,39.79146331586641],[18.26910824779134,39.83469682499853],[18.149259399321267,39.86195440004356],[18.12074747026545,39.88467363343934],[18.047563745047498,39.928785212326076],[17.99319008193902,40.00007458652933],[18.01764089561483,40.007016940949114],[18.016131718468035,40.03405820140293],[17.97208238330903,40.054586538369065],[18.004601503386922,40.07172156139841],[18.0099187244557,40.10905994664077],[17.91981032479736,40.19213547793116],[17.904518088714813,40.256203398421746],[17.860093757567714,40.284247415618374],[17.678494388567564,40.304714471705985],[17.507629480657975,40.294974394701526],[17.203317396410547,40.40827000407418],[17.254734925843298,40.44110406774183],[17.248295202766972,40.46017045142712],[17.181832291059028,40.48144122010877],[17.1626398608313,40.506111022222456],[17.144748738115357,40.4949127912174],[17.12355835348188,40.518341975267504],[17.021911475221287,40.50566286107137],[16.909439794469407,40.44171008889834],[16.786211750953708,40.30256624858459],[16.691814419944315,40.151678816261914],[16.606000216573054,40.080608337104486],[16.59904873530825,40.03699880816892],[16.627044496458986,39.95710654322418],[16.503292269580385,39.82780829467958],[16.487746161063917,39.76408279996626],[16.529399762719777,39.724435469443755],[16.522867099253308,39.659332336922255],[16.622292251588284,39.6213119088409],[16.770404597778448,39.62079295616321],[16.866594982064527,39.53861858594948],[17.024495707648896,39.483847542057944],[17.052166600255763,39.439464538994166],[17.156715932671194,39.4011308369574],[17.109222338156883,39.30752786170566],[17.106340717881096,39.25325987929103],[17.14842145965357,39.206097992223185],[17.10810354514635,39.10734351114552],[17.14674990677403,39.046479267969154],[17.20501903050874,39.02066780966641],[17.164023114595345,38.99465417210314],[17.170130505904346,38.95680607009027],[17.09415472369875,38.892618441919616],[17.08513606334876,38.91218940790711],[17.02159970834316,38.905834548727654],[16.980644867366117,38.93815386931754],[16.890582513337765,38.9279945269828],[16.775828233434726,38.89541395128979],[16.604638352630577,38.81081801167651],[16.53479150728707,38.711362099649705],[16.558595174516753,38.680598438047056],[16.58219163328327,38.46914686451547],[16.571095359866014,38.427198866044044],[16.4666296380831,38.340062876581314],[16.334559108445116,38.30008455397083],[16.288542928731744,38.25962358938764],[16.163949263032034,38.13398882029773],[16.1441937493212,38.03124833041856],[16.064455271369145,37.925634592477714],[15.732663585817047,37.92539101761064],[15.678022709680357,37.954062823477585],[15.635904094512755,38.008373906873054],[15.657074800306628,38.03967462720663],[15.630228892415873,38.09322925577199],[15.655258150286961,38.13384079684219],[15.633394969193322,38.223344629781565],[15.809298700929476,38.29323879508826],[15.906524569452307,38.468315805891415],[15.930397837959505,38.5471953787125],[15.82807901242874,38.6179407408534],[15.836200732408763,38.645037486418985],[15.9860235323498,38.723020127622405],[16.105682095458803,38.71190008318842],[16.182056038005573,38.74756864167485],[16.216908055373104,38.823723387952576],[16.220400112330182,38.90691386475768],[16.211234293669197,38.93025583202694],[16.156120294665968,38.951482186383124],[16.10073129362456,39.02713882310878],[16.066866482873003,39.13346883654448],[16.036686676257528,39.348400705322085],[15.986743810389326,39.45443290817275],[15.925195480003246,39.52653169760209],[15.873953234705432,39.55390165605435],[15.769009647077828,39.835674818564975],[15.789079198485041,39.849623894265584],[15.791969847849598,39.86017744571065],[15.780196026993975,39.89138537047195],[15.674550082557216,40.029514473630655],[15.626837873366169,40.056250372746085],[15.62988979821756,40.07193935794051],[15.513853790069355,40.06887312917501],[15.419039495084467,39.99056046734223],[15.356856297583724,39.99911657748272],[15.314859884676823,40.03188175579522],[15.270901898235229,40.02300335735374],[15.285303934408807,40.0350872592903],[15.271242689531674,40.07423438152284],[15.132054491297822,40.17146805929239],[15.039955159877334,40.17052595361284],[14.990894450510565,40.21894595210787],[14.908904807227215,40.2434234273379],[14.943455136907565,40.2757031239334],[14.944802243725503,40.335565934293946],[14.997292220595671,40.35693481157465],[14.999050358820664,40.38969990121904],[14.893377972629349,40.56662189308148],[14.788948223221801,40.66529690392285],[14.74737450633663,40.67772838374276],[14.688266980484455,40.633575897658616],[14.624899820450073,40.6478797472195],[14.572107864845947,40.611399614695785],[14.528648229154713,40.60726754669909],[14.486280019680805,40.62753849216752],[14.418907643931304,40.61029152959873],[14.324520440734148,40.56904107303951],[14.339389965783534,40.62820334959199],[14.3997041651583,40.637978946631065],[14.403604777345839,40.65630806707204],[14.479245864459134,40.695960123920315],[14.461090714916704,40.742482967806666],[14.395507242613537,40.75938673505107],[14.32441041322388,40.8195222176986],[14.305109550973794,40.83164995866145],[14.273932841198345,40.844693329860725],[14.223245337963348,40.82916829515334],[14.221252679693716,40.82787229410811],[14.220810917920048,40.82749876763921],[14.22054451883563,40.82647521116419],[14.220621072827209,40.82639136343306],[14.221487776010155,40.825456969695956],[14.224513085273601,40.8264674486325],[14.206122469385175,40.80906948131828],[14.20725830735817,40.80076240097492],[14.187286159428218,40.79225582944357],[14.161421603177304,40.792843108544396],[14.162173349347755,40.81531795970006],[14.10481693733783,40.83168095957899],[14.071669992282152,40.818926859404925],[14.089457770518926,40.77779660420471],[14.041708252606712,40.79113889405171],[14.044821927182642,40.8648393350014],[14.002620598764139,40.94830578680405],[13.922475322999608,41.0265360403976],[13.83145564518356,41.16761104066052],[13.730915276433869,41.242574337473066],[13.621035889635658,41.26072093315729],[13.57400059582487,41.240364543761395],[13.571578064618075,41.21616674356708],[13.591253842384452,41.20914870330351],[13.570033323619278,41.204077292766996],[13.37934844680249,41.279730975075374],[13.28385891566184,41.29757598916057],[13.160478951937955,41.27123531838294],[13.094520924672107,41.22443296084167],[13.045546957771078,41.22678571118905],[12.993912871804241,41.32008688460559],[12.930213389419857,41.37540974753136],[12.847921424461777,41.41303572623335],[12.765493527125704,41.410134495338866],[12.674027302749337,41.45540885133622],[12.622352984034114,41.444698910602305],[12.43710847149199,41.640773949659476],[12.352154363016938,41.69684219202565],[12.284012852700672,41.72631211921381],[12.253699877082372,41.736825875821616],[12.249030311927575,41.737460611426684],[12.243624222794388,41.73786775989437],[12.241896749605845,41.739745376624874],[12.236487826512159,41.73858328762472],[12.234168221322998,41.74058976436114],[12.256207605262325,41.74616087118639],[12.22524333617809,41.74477571431921],[12.203510232991258,41.82974295062262],[12.14073837744092,41.91624217085949],[11.915734127794895,42.03936981966167],[11.832828622417177,42.031060022557774],[11.746381250424438,42.137949989704275],[11.695781993311103,42.234906377191315],[11.632474382651633,42.29553204235584],[11.452083509204657,42.38229224342942],[11.272947436217105,42.418618754801656],[11.21184049349428,42.41012496573465],[11.212755687945346,42.38742058031203],[11.182654166759178,42.36254865770976],[11.09800879367512,42.39319907033195],[11.08972783053282,42.425814836329074],[11.104502404290566,42.44732837196189],[11.122582097661681,42.4345967567105],[11.157687553069145,42.43404459243731],[11.17861500122443,42.452796099143654],[11.192209628165312,42.50067434652598],[11.180882976705904,42.53540973741679],[11.156787178198853,42.5627666927692],[11.117184120473071,42.56582895358194],[11.083870878757104,42.62787808843359],[11.009977674369495,42.65918296647958],[10.95504557370397,42.734815283922025],[10.734440316177459,42.80133094925329],[10.773100737152665,42.832006184559994],[10.76942680213347,42.86949424946034],[10.786632138659792,42.88822726119619],[10.773250151924548,42.90947746971684],[10.645082013893054,42.95319431501112],[10.561207785929268,42.950945194379564],[10.543502869971771,42.920751120623734],[10.49529539938547,42.931771505640675],[10.483003149688123,42.988391918036584],[10.51606215559012,42.99908414483354],[10.53744143882728,43.09169608356279],[10.523205623735901,43.24765380505974],[10.459316424957853,43.322045951281474],[10.42499122326596,43.39837820285465],[10.381206176407394,43.45009545549104],[10.330446324827133,43.4738354100316],[10.295578804684219,43.54136585695741],[10.29412192776302,43.55240935080509],[10.316353178734989,43.5736015058722],[10.319925092015577,43.584329077985586],[10.296644368460075,43.56228331550999],[10.272559433175228,43.67189615774835],[10.277599435348332,43.73751589976743],[10.238126073458192,43.87294217661241],[10.164100261442258,43.95817003781352],[10.064131308889804,44.02809821389181],[10.000637168879122,44.0511758013452],[9.963726291298066,44.037383801544244],[9.851537993244689,44.11015620640744],[9.835200567732263,44.10944401620598],[9.824654321751675,44.10226402038453],[9.821196946807104,44.095522981060064],[9.81094352446669,44.101808471110026],[9.847278800551019,44.06122908584121],[9.832624471144744,44.05008393449428],[9.66746565221961,44.142984828306695],[9.635464679204363,44.133521318611365],[9.60714036713471,44.170813489395144],[9.4881569756465,44.2391041191083],[9.403142893048747,44.25527775817838],[9.376938538231574,44.2905149543698],[9.2342316507348,44.34838607148238],[9.213736710191622,44.33360298767009],[9.217547143508424,44.29850459339537],[9.152255671546513,44.317127100979704],[9.140098110425624,44.361127464980356],[8.951967080571471,44.39126180879797],[8.924010860180523,44.41416083610153],[8.916505821030137,44.398562392295865],[8.821850567296753,44.41492081266098],[8.85236660499022,44.4189996451109],[8.835805682724244,44.42389300527725],[8.746990131610305,44.4270990037635],[8.509346068312821,44.32844689265584],[8.45105601067118,44.287972243106616],[8.440428115888444,44.27025681538078],[8.4563295903677,44.25840123900639],[8.415917670728088,44.221280255766146],[8.424758870450543,44.19497868358415],[8.269068025901214,44.139320153512855],[8.231705416500846,44.092329091334534],[8.226053366347175,44.044009602220704],[8.163118978459917,43.9925955719873],[8.17370663261862,43.954747870692565],[8.071144946490435,43.890517984346225],[7.833044084253089,43.8164327808612],[7.699996775466545,43.79865047788392],[7.673216607070947,43.77603383110579],[7.575391315295706,43.79286118278128],[7.555741559991811,43.7797820571061],[7.529601085691221,43.7842543691355],[7.49479106932911,43.855955894885625],[7.515170428409884,43.883831854955304],[7.562643523734296,43.90065875322551],[7.566318476435475,43.94317871079515]],[[8.047820645796834,45.10787387061995],[8.026358698509393,45.133001108930515],[7.980277387338743,45.123831302299415],[8.01110140211312,45.10244433215846],[8.047820645796834,45.10787387061995]],[[12.488711861069527,43.90062697709447],[12.515665508624718,43.941532892837735],[12.51428156714217,43.99087521553525],[12.404592592127,43.95569608726894],[12.4083556015595,43.90297162161295],[12.488711861069527,43.90062697709447]],[[8.66513114016714,45.82040703342163],[8.691159103240867,45.81278486950517],[8.716914388364648,45.83432691847576],[8.697524573651359,45.8447403594196],[8.66513114016714,45.82040703342163]],[[12.660393785620922,41.73534881938955],[12.648939581010728,41.7487591893349],[12.654901821222841,41.73467037421677],[12.660393785620922,41.73534881938955]],[[12.454366726528978,41.900273295513216],[12.455535920519369,41.90755788276421],[12.44682037273359,41.90224452170392],[12.454366726528978,41.900273295513216]]],[[[9.488614470794165,41.22089164540038],[9.464524992077877,41.1889190364205],[9.480210464817407,41.18123069246627],[9.436521602632478,41.18098682750055],[9.456457575784905,41.200207699258314],[9.459460023836584,41.24260441076931],[9.488614470794165,41.22089164540038]]],[[[9.4143576551788,41.268049018614],[9.447709253587218,41.23296623282863],[9.437184543043292,41.21365457210715],[9.375900571956594,41.21818116105032],[9.4143576551788,41.268049018614]]],[[[11.944611690259876,36.83641876258522],[12.013349513226416,36.82516620060094],[12.053482607929086,36.790560387588215],[12.052065796570625,36.756057011088764],[12.028354756678683,36.73582208255066],[11.992139439524966,36.73788517487944],[11.92659038712675,36.802270851662655],[11.944611690259876,36.83641876258522]]],[[[12.064718351701348,37.99295945753243],[12.091706469220137,37.94735037926826],[12.044423324966788,37.95853276778297],[12.027935719991603,37.99156184733472],[12.064718351701348,37.99295945753243]]],[[[10.90677155617444,42.37987367728448],[10.931134205570107,42.33804698543716],[10.921130763940448,42.31956225162358],[10.882422063408502,42.35185915855438],[10.86708404088503,42.35347438339415],[10.864402271797672,42.36214763561357],[10.881587343612619,42.36762360680438],[10.880173881576502,42.388832347453004],[10.90677155617444,42.37987367728448]]],[[[10.245234243507868,42.749629431597576],[10.236789359769372,42.72603711732846],[10.13906146525472,42.73261614901295],[10.103277609554512,42.78642847565035],[10.1859732726469,42.81225938991063],[10.241861519693165,42.78738889792144],[10.269405620727856,42.80345597759545],[10.263145069706693,42.83009036745151],[10.334574562942612,42.816744868081045],[10.317373230264177,42.80464308625777],[10.34557730672007,42.7965774217252],[10.407719808583582,42.87134222738032],[10.443792328864875,42.847407833111234],[10.434189710272001,42.77561386311282],[10.385710721618954,42.75934866273211],[10.432765266380134,42.734894524075855],[10.424255311873457,42.708399239914414],[10.41115946155861,42.7163531559204],[10.38272330349798,42.71498229063938],[10.344611131574117,42.763949544435064],[10.318177009250467,42.75997493775543],[10.319511005663745,42.736019188528495],[10.30983596590391,42.759235422688185],[10.283022847542501,42.734907435517655],[10.245234243507868,42.749629431597576]]],[[[9.847599823543804,43.04514534816751],[9.811534802765333,43.002759510242406],[9.7913707481588,43.02283764136227],[9.796062362511924,43.02594331658543],[9.799415375106738,43.03534132672944],[9.800136664505631,43.053769286184654],[9.825565686184177,43.072897315564504],[9.847599823543804,43.04514534816751]]],[[[12.5177520943717,35.5201890422229],[12.627918945640308,35.52040588675922],[12.632694802799051,35.493691935511414],[12.599256775872126,35.495536848105004],[12.56878577490837,35.51143990398016],[12.5177520943717,35.5201890422229]]],[[[12.324759729034493,37.92921528296019],[12.348976191292966,37.93459941467916],[12.367037765206948,37.90791682525011],[12.337267540460267,37.91979849290959],[12.286447569082561,37.91589452773233],[12.274454829054932,37.93609847561142],[12.308092462496795,37.95599340979479],[12.324759729034493,37.92921528296019]]],[[[12.932876493440544,38.028432065371504],[13.077803905815047,38.08772027828811],[13.05242882476966,38.13873316362292],[13.105628439528768,38.19094228156473],[13.191387515044527,38.169334816492636],[13.316466949346541,38.22468448918812],[13.36571757850211,38.18228463612885],[13.362666503414408,38.12983759352332],[13.38426053890752,38.10865855821854],[13.442719453256023,38.09480680448061],[13.508590402920694,38.11960454994351],[13.537876697606139,38.112550635873326],[13.536490316912605,38.06709019716329],[13.566420003006646,38.0387584252015],[13.744956937265291,37.97014325242624],[14.035910915967307,38.04148871522058],[14.065121372059007,38.01850494711602],[14.146474419386546,38.02990590650631],[14.288457892965233,38.007007255425506],[14.426954493138522,38.04055886292587],[14.521132572189524,38.04142998469166],[14.636432287008194,38.07327161566372],[14.747843298017413,38.16538641520463],[14.787499614477982,38.151406202509015],[14.916270876966891,38.192276200396954],[14.96976198743631,38.152443840378886],[15.04482254165251,38.15190123586932],[15.096032877026671,38.12088674896175],[15.21214835662001,38.186423627245176],[15.240973043952339,38.242488458565504],[15.231195922098514,38.27153501491943],[15.25293719588523,38.24674570912745],[15.241287762148357,38.21689183044662],[15.292829295879356,38.206377865122825],[15.42612721516776,38.24133185259333],[15.541413338739893,38.30144453809581],[15.652935490080754,38.26724715181416],[15.582179016999904,38.245361480625704],[15.557594064564944,38.190384004499336],[15.576043982998423,38.194114923805174],[15.493602128380358,38.07461447842494],[15.213821975679704,37.756498999852674],[15.218347297125336,37.708373057921776],[15.174308796230406,37.63210669649587],[15.17714174352156,37.576261629607494],[15.115286933901634,37.53061537470763],[15.099995039010322,37.48388949535966],[15.090270733417697,37.499657467238904],[15.099406313800511,37.31799911590798],[15.18665095950926,37.27941096824651],[15.206611412075716,37.29335342838163],[15.246228270049514,37.24611125111075],[15.257529196706995,37.24351353060829],[15.225553749785146,37.24078020254645],[15.2244970176556,37.21622384138375],[15.214489908998328,37.24713443755052],[15.184838593920553,37.236879329938645],[15.18647836425663,37.191498040756144],[15.206026638661536,37.15330799372232],[15.233610824331567,37.159127104637065],[15.244753278281117,37.1458715492881],[15.220117164538557,37.14336827609172],[15.236949901950538,37.11543958457829],[15.295748411366308,37.10674490729013],[15.2986355157014,37.05941585268425],[15.274520459093617,37.06233768285877],[15.27563533474761,37.03937845030751],[15.312416392627625,37.03864338230574],[15.336742362349971,37.00756797065685],[15.275115373938629,37.00672860489177],[15.264865654250027,36.99762289487045],[15.262620661892385,36.97510255295296],[15.20853330682108,36.963534156156996],[15.153430417592103,36.914459319499194],[15.094173499881173,36.799330357903635],[15.123602329133076,36.70159986324649],[15.140249269461794,36.685038500739495],[15.07850603016721,36.64651482571224],[15.0179597426641,36.70201730667811],[14.956615361967105,36.69408556625976],[14.876845011115446,36.73109802424531],[14.834507375349087,36.722103672014015],[14.83984061828088,36.707856672987205],[14.7810489957458,36.703677706853334],[14.689837002580601,36.72123650372549],[14.588286266110401,36.77699357769406],[14.493513126068708,36.78654592183936],[14.460035726213142,36.81468063373632],[14.436284655045103,36.8842014091167],[14.376497463967793,36.9635561886048],[14.243261318027848,37.06560301075465],[14.078909565050314,37.1096476802437],[13.878609615874188,37.10221487870667],[13.82468141125926,37.1442488480464],[13.751391912614631,37.14925776732256],[13.663438752935148,37.19338230538158],[13.555520984268286,37.28543976536154],[13.448485004747736,37.29596078010616],[13.321734121490433,37.36372911350873],[13.168910962808633,37.4919899310132],[13.020035718842589,37.495581548581185],[12.964162793993559,37.56160825148157],[12.917718699294342,37.577103227087484],[12.780986986676686,37.58083524602903],[12.672842309630548,37.55995326315697],[12.606416188439878,37.64129554291798],[12.51770514736804,37.66080188294781],[12.471754097403242,37.703354833104726],[12.470065952570835,37.747043140962475],[12.42546452723674,37.80312265964734],[12.461684376007918,37.81729236602058],[12.485864732427876,37.87367953738167],[12.459171178329756,37.9083658336566],[12.519967296071368,38.010556277882216],[12.491579199635643,38.016959783711016],[12.569378512806937,38.06885224690497],[12.64570204922044,38.07816327941596],[12.660364542659828,38.11178872339218],[12.711188162999917,38.109742715729006],[12.73756887455881,38.13960474268544],[12.715925769915913,38.172870090192724],[12.726295792124217,38.18749878916055],[12.76814869124255,38.179558464753974],[12.826566611456194,38.06673508644199],[12.87933566116256,38.02887877775986],[12.932876493440544,38.028432065371504]]],[[[15.00607487164377,38.37567034505874],[14.97607923468386,38.36916570678677],[14.939544023926848,38.41133436059729],[14.962751262280744,38.431130299081474],[15.00607487164377,38.37567034505874]]],[[[14.960486820609239,38.52338651088681],[14.980662192037446,38.4830310207614],[14.955297423463161,38.474422040463104],[14.955768713546592,38.43951821141106],[14.899469616897944,38.47911879144197],[14.912497673128028,38.51843088813869],[14.960486820609239,38.52338651088681]]],[[[14.808097068054524,38.55299356491084],[14.806728905885024,38.58283890136783],[14.871265973553516,38.57747545500781],[14.871272703897343,38.53669625093217],[14.808097068054524,38.55299356491084]]],[[[13.954062044922253,40.70066139381681],[13.85690014507883,40.70605423022933],[13.861892212666419,40.75742184618577],[13.95397366546919,40.742004948405395],[13.954062044922253,40.70066139381681]]],[[[15.188535505846852,38.78781048324773],[15.216180957140297,38.81170190825238],[15.243165105240443,38.80341678544051],[15.215803724232932,38.77160093678893],[15.188535505846852,38.78781048324773]]]]}}]}